[{"OBJECT_NAME":"ONEWEB-0184","OBJECT_ID":"2021-031B","EPOCH":"2026-03-09T17:48:46.257984","MEAN_MOTION":13.14502969,"ECCENTRICITY":0.00022063,"INCLINATION":87.9,"RA_OF_ASC_NODE":309.5336,"ARG_OF_PERICENTER":100.3297,"MEAN_ANOMALY":259.8082,"EPHEMERIS_TYPE":0,"CLASSIFICATION_TYPE":"U","NORAD_CAT_ID":48211,"ELEMENT_SET_NO":999,"REV_AT_EPOCH":23522,"BSTAR":0.000421233,"MEAN_MOTION_DOT":1.69e-6,"MEAN_MOTION_DDOT":0},{"OBJECT_NAME":"COSMOS 252 DEB","OBJECT_ID":"1968-097ET","EPOCH":"2026-03-08T21:00:26.436672","MEAN_MOTION":13.95651289,"ECCENTRICITY":0.05801012,"INCLINATION":62.793,"RA_OF_ASC_NODE":17.3776,"ARG_OF_PERICENTER":65.663,"MEAN_ANOMALY":300.3848,"EPHEMERIS_TYPE":0,"CLASSIFICATION_TYPE":"U","NORAD_CAT_ID":19479,"ELEMENT_SET_NO":999,"REV_AT_EPOCH":87836,"BSTAR":0.0017136051,"MEAN_MOTION_DOT":9.921e-5,"MEAN_MOTION_DDOT":0}]
